ONEWEB-0456             
1 51646U 22012AA  25087.33918135  .00000146  00000+0  38164-3 0  9999
2 51646  87.8815 125.1137 0002018  90.9045 269.2313 13.10369368150955
ONEWEB-0457             
1 51647U 22012AB  25087.39230883  .00000591  00000+0  16564-2 0  9996
2 51647  87.8828 125.1505 0001928 107.7356 252.3982 13.10375207150965
ONEWEB-0458             
1 51648U 22012AC  25087.79567787  .00000305  00000+0  83712-3 0  9990
2 51648  87.8806 125.0638 0002142  96.4390 263.6981 13.10371178152272
ONEWEB-0461             
1 51649U 22012AD  25087.40784833  .00000019  00000+0  16538-4 0  9997
2 51649  87.8999  94.6412 0001878  92.3437 267.7909 13.17651088155185
ONEWEB-0463             
1 51650U 22012AE  25087.38928772  .00000035  00000+0  57559-4 0  9994
2 51650  87.9001  94.7044 0001983  92.6941 267.4417 13.17650794154963
ONEWEB-0464             
1 51651U 22012AF  25087.33421228  .00000427  00000+0  11883-2 0  9997
2 51651  87.8826 125.1700 0002092  87.4209 272.7157 13.10370308150933
ONEWEB-0468             
1 51652U 22012AG  25087.34084131  .00000044  00000+0  89041-4 0  9995
2 51652  87.8826 125.1608 0002039  95.7367 264.3992 13.10369604150918
ONEWEB-0473             
1 51653U 22012AH  25087.40227002  .00000652  00000+0  18314-2 0  9997
2 51653  87.8827 125.1519 0002161  96.0482 264.0891 13.10371699150922
ONEWEB-0474             
1 51654U 22012AJ  25087.39396958  .00000671  00000+0  18864-2 0  9994
2 51654  87.8819 125.1241 0002206  91.6912 268.4468 13.10374587150911
ONEWEB-0475             
1 51655U 22012AK  25087.78076687  .00000060  00000+0  12023-3 0  9996
2 51655  87.9004  94.6057 0002759  86.8502 273.2945 13.17652714156321
ONEWEB-0490             
1 54113U 22138A   25087.33183650  .00000136  00000+0  30637-3 0  9992
2 54113  87.9231  33.5681 0001996  75.8932 284.2422 13.19727720118026
ONEWEB-0492             
1 54114U 22138B   25087.35710277  .00000087  00000+0  18608-3 0  9995
2 54114  87.9235  33.5814 0001847  73.2455 286.8880 13.19723689118033
ONEWEB-0495             
1 54115U 22138C   25087.33500598  .00000179  00000+0  41413-3 0  9999
2 54115  87.9239  33.5969 0002582  67.7497 292.3909 13.19725463118014
ONEWEB-0497             
1 54116U 22138D   25087.87835845  .00000226  00000+0  53307-3 0  9993
2 54116  87.9239  33.4650 0002004  76.9075 283.2281 13.19726896118949
ONEWEB-0499             
1 54117U 22138E   25087.40608288  .00000090  00000+0  19352-3 0  9993
2 54117  87.9238  33.5727 0002330  84.0978 276.0421 13.19727400118026
ONEWEB-0500             
1 54118U 22138F   25087.40923867  .00000152  00000+0  34781-3 0  9999
2 54118  87.9240  33.5588 0001907  79.9441 280.1907 13.19727233118032
ONEWEB-0501             
1 54119U 22138G   25087.36342047  .00000033  00000+0  50260-4 0  9999
2 54119  87.9232  33.5632 0002297  73.0403 287.0981 13.19728568118007
ONEWEB-0502             
1 54120U 22138H   25087.87992857  .00000131  00000+0  29559-3 0  9992
2 54120  87.9233  33.4459 0002197  77.9275 282.2103 13.19723771118964
ONEWEB-0503             
1 54121U 22138J   25087.79305537 -.00000184  00000+0 -49079-3 0  9996
2 54121  87.9232  33.4682 0002206  88.5157 271.6229 13.19725104118941
ONEWEB-0504             
1 54122U 22138K   25087.40134358  .00000100  00000+0  21654-3 0  9991
2 54122  87.9234  33.5586 0002276  80.3741 279.7649 13.19727642118038
ONEWEB-0505             
1 54123U 22138L   25087.39818707  .00000105  00000+0  22958-3 0  9990
2 54123  87.9233  33.5501 0002593  73.9085 286.2333 13.19727549118013
ONEWEB-0506             
1 54124U 22138M   25087.37290349 -.00000006  00000+0 -47857-4 0  9993
2 54124  87.9231  33.5524 0002065  77.4172 282.7192 13.19726980118008
ONEWEB-0507             
1 54125U 22138N   25087.84833020  .00000107  00000+0  23569-3 0  9998
2 54125  87.9239  33.5033 0002088  74.4381 285.6982 13.19723479118982
ONEWEB-0508             
1 54126U 22138P   25087.39028731  .00000095  00000+0  20530-3 0  9995
2 54126  87.9236  33.5799 0002132  69.7235 290.4127 13.19727440118037
ONEWEB-0509             
1 54127U 22138Q   25087.36500261  .00000069  00000+0  13948-3 0  9992
2 54127  87.9228  33.5528 0002113  77.4677 282.6692 13.19728049118007
ONEWEB-0510             
1 54128U 22138R   25087.30276217 -.00000350  00000+0 -89343-3 0  9995
2 54128  87.9336   3.1861 0001620  78.8351 281.2965 13.20771618120426
ONEWEB-0511             
1 54129U 22138S   25087.36184057 -.00000107  00000+0 -29999-3 0  9993
2 54129  87.9230  33.5581 0002210  87.4957 272.6428 13.19727438118031
ONEWEB-0512             
1 54130U 22138T   25087.88467458  .00000100  00000+0  21869-3 0  9990
2 54130  87.9242  33.4925 0002347  76.1729 283.9664 13.19724922118942
ONEWEB-0513             
1 54131U 22138U   25087.84881471  .00000057  00000+0  10859-3 0  9990
2 54131  87.9237  33.4841 0002453  79.6811 280.4598 13.20255240118821
ONEWEB-0514             
1 54132U 22138V   25087.36974522  .00000045  00000+0  79339-4 0  9994
2 54132  87.9229  33.5675 0002019  81.7377 278.3985 13.19723390118020
ONEWEB-0515             
1 54133U 22138W   25087.29013094 -.00000137  00000+0 -36921-3 0  9998
2 54133  87.9335   3.1652 0001006  66.4237 293.7002 13.20774364120446
ONEWEB-0516             
1 54134U 22138X   25087.34446895 -.00000260  00000+0 -68065-3 0  9995
2 54134  87.9237  33.6025 0001926  75.9314 284.2033 13.19725621118022
ONEWEB-0517             
1 54135U 22138Y   25087.39976069  .00000113  00000+0  24941-3 0  9992
2 54135  87.9235  33.5560 0002201  87.9276 272.2109 13.19727662118030
ONEWEB-0518             
1 54136U 22138Z   25087.34289573 -.00000055  00000+0 -16892-3 0  9998
2 54136  87.9243  33.5987 0002149  81.8991 278.2385 13.19725400118020
ONEWEB-0519             
1 54137U 22138AA  25087.36816260 -.00000322  00000+0 -83555-3 0  9997
2 54137  87.9230  33.5563 0002110  86.4009 273.7365 13.19725327118033
ONEWEB-0520             
1 54138U 22138AB  25087.85782376  .00000009  00000+0 -10681-4 0  9994
2 54138  87.9233  33.4625 0002177  71.7957 288.3413 13.19724965118951
ONEWEB-0521             
1 54139U 22138AC  25087.36027087 -.00000010  00000+0 -56154-4 0  9990
2 54139  87.9228  33.5500 0001920  88.7826 271.3527 13.19724086117969
ONEWEB-0522             
1 54140U 22138AD  25087.87045322  .00000140  00000+0  31786-3 0  9995
2 54140  87.9227  33.4501 0001897  75.9069 284.2275 13.19728241118949
ONEWEB-0523             
1 54141U 22138AE  25087.27751163  .00000097  00000+0  20757-3 0  9994
2 54141  87.9338   3.1978 0001238 102.5057 257.6215 13.20774444120442
ONEWEB-0524             
1 54142U 22138AF  25087.49373203  .00000089  00000+0  18710-3 0  9991
2 54142  87.9337   3.1569 0001112  53.9839 306.1397 13.20775064120479
ONEWEB-0525             
1 54143U 22138AG  25087.35868905  .00000061  00000+0  11971-3 0  9997
2 54143  87.9232  33.5683 0002241  75.5799 284.5582 13.19726371118025
ONEWEB-0526             
1 54144U 22138AH  25087.39187077  .00000103  00000+0  22533-3 0  9999
2 54144  87.9229  33.5519 0002094  76.3855 283.7510 13.19727044118006
ONEWEB-0529             
1 54145U 22138AJ  25087.84990932  .00000097  00000+0  20883-3 0  9990
2 54145  87.9239  33.4967 0002153  73.8183 286.3186 13.19723735118951
ONEWEB-0531             
1 54146U 22138AK  25087.47952675 -.00000169  00000+0 -44629-3 0  9998
2 54146  87.9336   3.1531 0001012  91.7022 268.4227 13.20772023120478
ONEWEB-0535             
1 54147U 22138AL  25087.35236420 -.00000287  00000+0 -74808-3 0  9992
2 54147  87.9231  33.5561 0001695  84.7873 275.3453 13.19724496118032
ONEWEB-0536             
1 54148U 22138AM  25087.46690111  .00000126  00000+0  27836-3 0  9995
2 54148  87.9335   3.2021 0000735  83.0928 277.0289 13.20774948120465
ONEWEB-0527             
1 54642U 22166A   25087.39523374  .00000119  00000+0  25622-3 0  9996
2 54642  87.9319 332.8858 0001724  77.4682 282.6645 13.21828896112640
ONEWEB-0528             
1 54643U 22166B   25087.40154177 -.00000261  00000+0 -66446-3 0  9999
2 54643  87.9318 332.8811 0001847  76.9073 283.2267 13.21825699112659
ONEWEB-0539             
1 54644U 22166C   25087.21073143  .00000093  00000+0  19393-3 0  9992
2 54644  87.9300 332.9150 0001928  82.7426 277.3927 13.21824388112623
ONEWEB-0540             
1 54645U 22166D   25087.21704624  .00000097  00000+0  20293-3 0  9993
2 54645  87.9315 332.9310 0002007  83.0186 277.1176 13.21827331112618
ONEWEB-0542             
1 54646U 22166E   25087.90145411 -.00000002  00000+0 -37214-4 0  9993
2 54646  87.9298 332.7760 0002002  90.8188 269.3175 13.21829035113176
ONEWEB-0545             
1 54647U 22166F   25087.18710818  .00002500  00000+0  60212-2 0  9998
2 54647  87.9308 332.9210 0002264  89.4589 270.6804 13.21814745113053
ONEWEB-0580             
1 54648U 22166G   25087.91722511  .00000227  00000+0  51760-3 0  9996
2 54648  87.9316 332.7656 0002066  91.5196 268.6174 13.21824488113189
ONEWEB-0582             
1 54649U 22166H   25087.65701794 -.00000452  00000+0 -11270-2 0  9991
2 54649  87.9296 332.8374 0002066  97.7465 262.3904 13.21825042113136
ONEWEB-0583             
1 54650U 22166J   25087.21388034  .00000075  00000+0  14981-3 0  9995
2 54650  87.9313 332.9296 0001912  82.9678 277.1673 13.21824367112611
ONEWEB-0584             
1 54651U 22166K   25087.38577367  .00000153  00000+0  33936-3 0  9991
2 54651  87.9319 332.8754 0001854  95.0835 265.0510 13.21829123112623
ONEWEB-0585             
1 54652U 22166L   25087.41100344 -.00000265  00000+0 -67342-3 0  9997
2 54652  87.9310 332.8664 0001740  79.2902 280.8428 13.21825045112631
ONEWEB-0586             
1 54653U 22166M   25087.65072471  .00000050  00000+0  88903-4 0  9990
2 54653  87.9314 332.8351 0001924  85.6149 274.5205 13.21824951113131
ONEWEB-0587             
1 54654U 22166N   25087.66018092  .00000166  00000+0  37045-3 0  9999
2 54654  87.9308 332.7838 0001751  74.9297 285.2031 13.21824847113283
